CCSDS_OMM_VERS = 2.0
CREATION_DATE  = 
ORIGINATOR     = 

OBJECT_NAME    = UNKNOWN
OBJECT_ID      = 
CENTER_NAME    = EARTH
REF_FRAME      = TEME
TIME_SYSTEM    = UTC
MEAN_ELEMENT_THEORY = SGP/SGP4

EPOCH          = 2025-11-11T14:13:58.713024
MEAN_MOTION    = 13.37983795
ECCENTRICITY   = .020714
INCLINATION    = 67.1368
RA_OF_ASC_NODE = 245.2034
ARG_OF_PERICENTER = 56.2741
MEAN_ANOMALY   = 115.3734

EPHEMERIS_TYPE = 0
CLASSIFICATION_TYPE = U
NORAD_CAT_ID   = 81317
ELEMENT_SET_NO = 999
REV_AT_EPOCH   = 58446
BSTAR          = .74262E-3
MEAN_MOTION_DOT = .38E-5
MEAN_MOTION_DDOT = 0

CCSDS_OMM_VERS = 2.0
CREATION_DATE  = 
ORIGINATOR     = 

OBJECT_NAME    = UNKNOWN
OBJECT_ID      = 
CENTER_NAME    = EARTH
REF_FRAME      = TEME
TIME_SYSTEM    = UTC
MEAN_ELEMENT_THEORY = SGP/SGP4

EPOCH          = 2025-11-07T05:43:15.663072
MEAN_MOTION    = 14.45543590
ECCENTRICITY   = .0346631
INCLINATION    = 65.7490
RA_OF_ASC_NODE = 128.1282
ARG_OF_PERICENTER = 331.9176
MEAN_ANOMALY   = 26.3592

EPHEMERIS_TYPE = 0
CLASSIFICATION_TYPE = U
NORAD_CAT_ID   = 81323
ELEMENT_SET_NO = 999
REV_AT_EPOCH   = 10792
BSTAR          = .21562E-2
MEAN_MOTION_DOT = .16082E-3
MEAN_MOTION_DDOT = 0

CCSDS_OMM_VERS = 2.0
CREATION_DATE  = 
ORIGINATOR     = 

OBJECT_NAME    = UNKNOWN
OBJECT_ID      = 
CENTER_NAME    = EARTH
REF_FRAME      = TEME
TIME_SYSTEM    = UTC
MEAN_ELEMENT_THEORY = SGP/SGP4

EPOCH          = 2025-11-09T02:30:15.997248
MEAN_MOTION    = 13.21952876
ECCENTRICITY   = .0829573
INCLINATION    = 65.8202
RA_OF_ASC_NODE = 207.0886
ARG_OF_PERICENTER = 45.3197
MEAN_ANOMALY   = 321.2454

EPHEMERIS_TYPE = 0
CLASSIFICATION_TYPE = U
NORAD_CAT_ID   = 81329
ELEMENT_SET_NO = 999
REV_AT_EPOCH   = 57363
BSTAR          = .18031E-2
MEAN_MOTION_DOT = .491E-4
MEAN_MOTION_DDOT = 0

CCSDS_OMM_VERS = 2.0
CREATION_DATE  = 
ORIGINATOR     = 

OBJECT_NAME    = UNKNOWN
OBJECT_ID      = 
CENTER_NAME    = EARTH
REF_FRAME      = TEME
TIME_SYSTEM    = UTC
MEAN_ELEMENT_THEORY = SGP/SGP4

EPOCH          = 2025-11-03T07:55:39.832896
MEAN_MOTION    = 12.96505407
ECCENTRICITY   = .035392
INCLINATION    = 99.4815
RA_OF_ASC_NODE = 255.3761
ARG_OF_PERICENTER = 243.4512
MEAN_ANOMALY   = 112.9910

EPHEMERIS_TYPE = 0
CLASSIFICATION_TYPE = U
NORAD_CAT_ID   = 81341
ELEMENT_SET_NO = 999
REV_AT_EPOCH   = 51831
BSTAR          = -.1273E-1
MEAN_MOTION_DOT = -.4894E-4
MEAN_MOTION_DDOT = 0

CCSDS_OMM_VERS = 2.0
CREATION_DATE  = 
ORIGINATOR     = 

OBJECT_NAME    = UNKNOWN
OBJECT_ID      = 
CENTER_NAME    = EARTH
REF_FRAME      = TEME
TIME_SYSTEM    = UTC
MEAN_ELEMENT_THEORY = SGP/SGP4

EPOCH          = 2025-11-10T16:37:56.141760
MEAN_MOTION    = 15.03242361
ECCENTRICITY   = .0010535
INCLINATION    = 85.8758
RA_OF_ASC_NODE = 216.4666
ARG_OF_PERICENTER = 31.8971
MEAN_ANOMALY   = 328.2898

EPHEMERIS_TYPE = 0
CLASSIFICATION_TYPE = U
NORAD_CAT_ID   = 81343
ELEMENT_SET_NO = 999
REV_AT_EPOCH   = 44950
BSTAR          = .69498E-3
MEAN_MOTION_DOT = .9451E-4
MEAN_MOTION_DDOT = 0

CCSDS_OMM_VERS = 2.0
CREATION_DATE  = 
ORIGINATOR     = 

OBJECT_NAME    = UNKNOWN
OBJECT_ID      = 
CENTER_NAME    = EARTH
REF_FRAME      = TEME
TIME_SYSTEM    = UTC
MEAN_ELEMENT_THEORY = SGP/SGP4

EPOCH          = 2025-11-09T05:45:46.756800
MEAN_MOTION    = 13.78760676
ECCENTRICITY   = .0113974
INCLINATION    = 66.7970
RA_OF_ASC_NODE = 132.1695
ARG_OF_PERICENTER = 346.3618
MEAN_ANOMALY   = 13.4381

EPHEMERIS_TYPE = 0
CLASSIFICATION_TYPE = U
NORAD_CAT_ID   = 81359
ELEMENT_SET_NO = 999
REV_AT_EPOCH   = 60086
BSTAR          = .94084E-3
MEAN_MOTION_DOT = .931E-5
MEAN_MOTION_DDOT = 0

CCSDS_OMM_VERS = 2.0
CREATION_DATE  = 
ORIGINATOR     = 

OBJECT_NAME    = UNKNOWN
OBJECT_ID      = 
CENTER_NAME    = EARTH
REF_FRAME      = TEME
TIME_SYSTEM    = UTC
MEAN_ELEMENT_THEORY = SGP/SGP4

EPOCH          = 2025-11-06T06:45:41.094432
MEAN_MOTION    = 13.45018916
ECCENTRICITY   = .0710214
INCLINATION    = 65.8817
RA_OF_ASC_NODE = 158.2640
ARG_OF_PERICENTER = 99.4853
MEAN_ANOMALY   = 268.7133

EPHEMERIS_TYPE = 0
CLASSIFICATION_TYPE = U
NORAD_CAT_ID   = 81366
ELEMENT_SET_NO = 999
REV_AT_EPOCH   = 6105
BSTAR          = .63348E-3
MEAN_MOTION_DOT = .1703E-4
MEAN_MOTION_DDOT = 0

CCSDS_OMM_VERS = 2.0
CREATION_DATE  = 
ORIGINATOR     = 

OBJECT_NAME    = UNKNOWN
OBJECT_ID      = 
CENTER_NAME    = EARTH
REF_FRAME      = TEME
TIME_SYSTEM    = UTC
MEAN_ELEMENT_THEORY = SGP/SGP4

EPOCH          = 2025-11-07T12:26:34.143072
MEAN_MOTION    = 14.69878264
ECCENTRICITY   = .0071821
INCLINATION    = 98.8163
RA_OF_ASC_NODE = 45.1257
ARG_OF_PERICENTER = 114.2123
MEAN_ANOMALY   = 246.6608

EPHEMERIS_TYPE = 0
CLASSIFICATION_TYPE = U
NORAD_CAT_ID   = 81371
ELEMENT_SET_NO = 999
REV_AT_EPOCH   = 63666
BSTAR          = .11207E-2
MEAN_MOTION_DOT = .6919E-4
MEAN_MOTION_DDOT = 0

CCSDS_OMM_VERS = 2.0
CREATION_DATE  = 
ORIGINATOR     = 

OBJECT_NAME    = UNKNOWN
OBJECT_ID      = 
CENTER_NAME    = EARTH
REF_FRAME      = TEME
TIME_SYSTEM    = UTC
MEAN_ELEMENT_THEORY = SGP/SGP4

EPOCH          = 2025-11-11T13:34:28.899264
MEAN_MOTION    = 14.35728347
ECCENTRICITY   = .0087742
INCLINATION    = 71.0473
RA_OF_ASC_NODE = 64.1476
ARG_OF_PERICENTER = 136.1873
MEAN_ANOMALY   = 224.6266

EPHEMERIS_TYPE = 0
CLASSIFICATION_TYPE = U
NORAD_CAT_ID   = 81386
ELEMENT_SET_NO = 999
REV_AT_EPOCH   = 61976
BSTAR          = .409E-2
MEAN_MOTION_DOT = .12328E-3
MEAN_MOTION_DDOT = 0

CCSDS_OMM_VERS = 2.0
CREATION_DATE  = 
ORIGINATOR     = 

OBJECT_NAME    = UNKNOWN
OBJECT_ID      = 
CENTER_NAME    = EARTH
REF_FRAME      = TEME
TIME_SYSTEM    = UTC
MEAN_ELEMENT_THEORY = SGP/SGP4

EPOCH          = 2025-11-07T22:09:56.432448
MEAN_MOTION    = 12.35658152
ECCENTRICITY   = .0168005
INCLINATION    = 103.1052
RA_OF_ASC_NODE = 198.3265
ARG_OF_PERICENTER = 207.8959
MEAN_ANOMALY   = 151.3011

EPHEMERIS_TYPE = 0
CLASSIFICATION_TYPE = U
NORAD_CAT_ID   = 81390
ELEMENT_SET_NO = 999
REV_AT_EPOCH   = 49579
BSTAR          = -.36784E-2
MEAN_MOTION_DOT = -.538E-5
MEAN_MOTION_DDOT = 0

CCSDS_OMM_VERS = 2.0
CREATION_DATE  = 
ORIGINATOR     = 

OBJECT_NAME    = UNKNOWN
OBJECT_ID      = 
CENTER_NAME    = EARTH
REF_FRAME      = TEME
TIME_SYSTEM    = UTC
MEAN_ELEMENT_THEORY = SGP/SGP4

EPOCH          = 2025-11-10T17:02:35.569824
MEAN_MOTION    = 13.81373567
ECCENTRICITY   = .0037269
INCLINATION    = 100.3974
RA_OF_ASC_NODE = 299.7168
ARG_OF_PERICENTER = 110.7149
MEAN_ANOMALY   = 65.4204

EPHEMERIS_TYPE = 0
CLASSIFICATION_TYPE = U
NORAD_CAT_ID   = 81392
ELEMENT_SET_NO = 999
REV_AT_EPOCH   = 59775
BSTAR          = .4352E-2
MEAN_MOTION_DOT = .4601E-4
MEAN_MOTION_DDOT = 0

CCSDS_OMM_VERS = 2.0
CREATION_DATE  = 
ORIGINATOR     = 

OBJECT_NAME    = UNKNOWN
OBJECT_ID      = 
CENTER_NAME    = EARTH
REF_FRAME      = TEME
TIME_SYSTEM    = UTC
MEAN_ELEMENT_THEORY = SGP/SGP4

EPOCH          = 2025-11-02T08:27:48.111552
MEAN_MOTION    = 13.88686156
ECCENTRICITY   = .0158545
INCLINATION    = 99.4680
RA_OF_ASC_NODE = 353.8711
ARG_OF_PERICENTER = 331.9698
MEAN_ANOMALY   = 27.2987

EPHEMERIS_TYPE = 0
CLASSIFICATION_TYPE = U
NORAD_CAT_ID   = 81405
ELEMENT_SET_NO = 999
REV_AT_EPOCH   = 55619
BSTAR          = .1262E-2
MEAN_MOTION_DOT = .1634E-4
MEAN_MOTION_DDOT = 0

